STARLINK-35520          
1 66133U 25237V   25349.66259772  .00051760  00000+0  12926-2 0  9995
2 66133  53.1605  73.6068 0001211  89.2867 270.8277 15.39681708  9691
STARLINK-35525          
1 66134U 25237W   25349.65795311  .00048107  00000+0  12040-2 0  9997
2 66134  53.1599  73.5784 0001013  85.4330 274.6790 15.39647668  9690
STARLINK-34852          
1 66135U 25237X   25349.78313575  .00044648  00000+0  11184-2 0  9994
2 66135  53.1602  72.9356 0001462 114.2679 245.8479 15.39653231  9674
STARLINK-35592          
1 66136U 25237Y   25349.64402219  .00047280  00000+0  11838-2 0  9995
2 66136  53.1605  73.4889 0001176  89.4473 270.6667 15.39643082  9692
STARLINK-35576          
1 66137U 25237Z   25349.50490390  .00028225  00000+0  71222-3 0  9990
2 66137  53.1608  74.0410 0000871 107.8700 252.2400 15.39653012  9675
STARLINK-35623          
1 66138U 25237AA  25349.49561872  .00020269  00000+0  51478-3 0  9994
2 66138  53.1612  73.9847 0001010  93.4026 266.7095 15.39653754  9673
STARLINK-35549          
1 66139U 25237AB  25349.91668981 -.00008167  00000+0 -19440-3 0  9999
2 66139  53.1601  72.1519 0001130  96.2928   1.7118 15.39621811  5874
STARLINK-35625          
1 66140U 25237AC  25349.45392473  .00054138  00000+0  13521-2 0  9990
2 66140  53.1606  74.4349 0001330  72.6713 287.4437 15.39659568  9667
STARLINK-35603          
1 66141U 25237AD  25349.63009372  .00046521  00000+0  11655-2 0  9997
2 66141  53.1613  73.4011 0001508  52.2786 307.8356 15.39630336  9694
STARLINK-35318          
1 66146U 25240A   25349.68486080  .00019107  00000+0  65543-3 0  9992
2 66146  53.1630  93.2413 0000968  40.3854 319.7218 15.30207699  9172
STARLINK-33948          
1 66147U 25240B   25349.48259034  .00019632  00000+0  67285-3 0  9996
2 66147  53.1627  94.1111 0001229  69.9461 290.1672 15.30217635  9140
STARLINK-35081          
1 66148U 25240C   25349.44986985  .00026827  00000+0  91411-3 0  9997
2 66148  53.1593  93.9038 0000969  21.8442 338.2600 15.30218338  9094
STARLINK-35601          
1 66149U 25240D   25349.91668981 -.00021897  00000+0 -72917-3 0  9997
2 66149  53.1580  91.8642 0001293  76.2274 272.8923 15.30207782  5882
STARLINK-35605          
1 66150U 25240E   25349.46677072  .00015739  00000+0  54255-3 0  9991
2 66150  53.1602  94.0101 0000864  91.7059 268.4041 15.30191566  9091
STARLINK-35540          
1 66151U 25240F   25349.69529989  .00025466  00000+0  86880-3 0  9997
2 66151  53.1623  92.5922 0000895  67.8434 292.2662 15.30206726  9138
STARLINK-35455          
1 66152U 25240G   25349.47836578  .00022376  00000+0  76485-3 0  9996
2 66152  53.1623  94.0831 0001881  79.1587 280.9626 15.30220726  9091
