[{"OBJECT_NAME":"STARLINK-35520","OBJECT_ID":"2025-237V","EPOCH":"2025-12-15T15:54:08.443008","MEAN_MOTION":15.39681708,"ECCENTRICITY":0.00012115,"INCLINATION":53.1605,"RA_OF_ASC_NODE":73.6068,"ARG_OF_PERICENTER":89.2867,"MEAN_ANOMALY":270.8277,"EPHEMERIS_TYPE":0,"CLASSIFICATION_TYPE":"U","NORAD_CAT_ID":66133,"ELEMENT_SET_NO":999,"REV_AT_EPOCH":969,"BSTAR":0.0012925843,"MEAN_MOTION_DOT":0.0005176,"MEAN_MOTION_DDOT":0},{"OBJECT_NAME":"STARLINK-35525","OBJECT_ID":"2025-237W","EPOCH":"2025-12-15T15:47:27.148704","MEAN_MOTION":15.39647668,"ECCENTRICITY":0.00010138,"INCLINATION":53.1599,"RA_OF_ASC_NODE":73.5784,"ARG_OF_PERICENTER":85.433,"MEAN_ANOMALY":274.679,"EPHEMERIS_TYPE":0,"CLASSIFICATION_TYPE":"U","NORAD_CAT_ID":66134,"ELEMENT_SET_NO":999,"REV_AT_EPOCH":969,"BSTAR":0.0012039856,"MEAN_MOTION_DOT":0.00048107,"MEAN_MOTION_DDOT":0},{"OBJECT_NAME":"STARLINK-34852","OBJECT_ID":"2025-237X","EPOCH":"2025-12-15T18:47:42.928800","MEAN_MOTION":15.39653231,"ECCENTRICITY":0.00014624,"INCLINATION":53.1602,"RA_OF_ASC_NODE":72.9356,"ARG_OF_PERICENTER":114.2679,"MEAN_ANOMALY":245.8479,"EPHEMERIS_TYPE":0,"CLASSIFICATION_TYPE":"U","NORAD_CAT_ID":66135,"ELEMENT_SET_NO":999,"REV_AT_EPOCH":967,"BSTAR":0.0011184392,"MEAN_MOTION_DOT":0.00044648,"MEAN_MOTION_DDOT":0},{"OBJECT_NAME":"STARLINK-35592","OBJECT_ID":"2025-237Y","EPOCH":"2025-12-15T15:27:23.517216","MEAN_MOTION":15.39643082,"ECCENTRICITY":0.00011765,"INCLINATION":53.1605,"RA_OF_ASC_NODE":73.4889,"ARG_OF_PERICENTER":89.4473,"MEAN_ANOMALY":270.6667,"EPHEMERIS_TYPE":0,"CLASSIFICATION_TYPE":"U","NORAD_CAT_ID":66136,"ELEMENT_SET_NO":999,"REV_AT_EPOCH":969,"BSTAR":0.0011837709,"MEAN_MOTION_DOT":0.0004728,"MEAN_MOTION_DDOT":0},{"OBJECT_NAME":"STARLINK-35576","OBJECT_ID":"2025-237Z","EPOCH":"2025-12-15T12:07:03.696960","MEAN_MOTION":15.39653012,"ECCENTRICITY":8.71e-5,"INCLINATION":53.1608,"RA_OF_ASC_NODE":74.041,"ARG_OF_PERICENTER":107.87,"MEAN_ANOMALY":252.24,"EPHEMERIS_TYPE":0,"CLASSIFICATION_TYPE":"U","NORAD_CAT_ID":66137,"ELEMENT_SET_NO":999,"REV_AT_EPOCH":967,"BSTAR":0.00071221558,"MEAN_MOTION_DOT":0.00028225,"MEAN_MOTION_DDOT":0},{"OBJECT_NAME":"STARLINK-35623","OBJECT_ID":"2025-237AA","EPOCH":"2025-12-15T11:53:41.457408","MEAN_MOTION":15.39653754,"ECCENTRICITY":0.00010106,"INCLINATION":53.1612,"RA_OF_ASC_NODE":73.9847,"ARG_OF_PERICENTER":93.4026,"MEAN_ANOMALY":266.7095,"EPHEMERIS_TYPE":0,"CLASSIFICATION_TYPE":"U","NORAD_CAT_ID":66138,"ELEMENT_SET_NO":999,"REV_AT_EPOCH":967,"BSTAR":0.00051478492,"MEAN_MOTION_DOT":0.00020269,"MEAN_MOTION_DDOT":0},{"OBJECT_NAME":"STARLINK-35549","OBJECT_ID":"2025-237AB","EPOCH":"2025-12-15T22:00:01.999584","MEAN_MOTION":15.39621811,"ECCENTRICITY":0.00011307,"INCLINATION":53.1601,"RA_OF_ASC_NODE":72.1519,"ARG_OF_PERICENTER":96.2928,"MEAN_ANOMALY":1.7118,"EPHEMERIS_TYPE":0,"CLASSIFICATION_TYPE":"U","NORAD_CAT_ID":66139,"ELEMENT_SET_NO":999,"REV_AT_EPOCH":587,"BSTAR":-0.00019439755,"MEAN_MOTION_DOT":-8.167e-5,"MEAN_MOTION_DDOT":0},{"OBJECT_NAME":"STARLINK-35625","OBJECT_ID":"2025-237AC","EPOCH":"2025-12-15T10:53:39.096672","MEAN_MOTION":15.39659568,"ECCENTRICITY":0.00013306,"INCLINATION":53.1606,"RA_OF_ASC_NODE":74.4349,"ARG_OF_PERICENTER":72.6713,"MEAN_ANOMALY":287.4437,"EPHEMERIS_TYPE":0,"CLASSIFICATION_TYPE":"U","NORAD_CAT_ID":66140,"ELEMENT_SET_NO":999,"REV_AT_EPOCH":966,"BSTAR":0.0013520766,"MEAN_MOTION_DOT":0.00054138,"MEAN_MOTION_DDOT":0},{"OBJECT_NAME":"STARLINK-35603","OBJECT_ID":"2025-237AD","EPOCH":"2025-12-15T15:07:20.097408","MEAN_MOTION":15.39630336,"ECCENTRICITY":0.00015089,"INCLINATION":53.1613,"RA_OF_ASC_NODE":73.4011,"ARG_OF_PERICENTER":52.2786,"MEAN_ANOMALY":307.8356,"EPHEMERIS_TYPE":0,"CLASSIFICATION_TYPE":"U","NORAD_CAT_ID":66141,"ELEMENT_SET_NO":999,"REV_AT_EPOCH":969,"BSTAR":0.0011655076,"MEAN_MOTION_DOT":0.00046521,"MEAN_MOTION_DDOT":0},{"OBJECT_NAME":"STARLINK-35318","OBJECT_ID":"2025-240A","EPOCH":"2025-12-15T16:26:11.973120","MEAN_MOTION":15.30207699,"ECCENTRICITY":9.682e-5,"INCLINATION":53.163,"RA_OF_ASC_NODE":93.2413,"ARG_OF_PERICENTER":40.3854,"MEAN_ANOMALY":319.7218,"EPHEMERIS_TYPE":0,"CLASSIFICATION_TYPE":"U","NORAD_CAT_ID":66146,"ELEMENT_SET_NO":999,"REV_AT_EPOCH":917,"BSTAR":0.00065543384,"MEAN_MOTION_DOT":0.00019107,"MEAN_MOTION_DDOT":0},{"OBJECT_NAME":"STARLINK-33948","OBJECT_ID":"2025-240B","EPOCH":"2025-12-15T11:34:55.805376","MEAN_MOTION":15.30217635,"ECCENTRICITY":0.00012297,"INCLINATION":53.1627,"RA_OF_ASC_NODE":94.1111,"ARG_OF_PERICENTER":69.9461,"MEAN_ANOMALY":290.1672,"EPHEMERIS_TYPE":0,"CLASSIFICATION_TYPE":"U","NORAD_CAT_ID":66147,"ELEMENT_SET_NO":999,"REV_AT_EPOCH":914,"BSTAR":0.00067285113,"MEAN_MOTION_DOT":0.00019632,"MEAN_MOTION_DDOT":0},{"OBJECT_NAME":"STARLINK-35081","OBJECT_ID":"2025-240C","EPOCH":"2025-12-15T10:47:48.755040","MEAN_MOTION":15.30218338,"ECCENTRICITY":9.698e-5,"INCLINATION":53.1593,"RA_OF_ASC_NODE":93.9038,"ARG_OF_PERICENTER":21.8442,"MEAN_ANOMALY":338.26,"EPHEMERIS_TYPE":0,"CLASSIFICATION_TYPE":"U","NORAD_CAT_ID":66148,"ELEMENT_SET_NO":999,"REV_AT_EPOCH":909,"BSTAR":0.00091410684,"MEAN_MOTION_DOT":0.00026827,"MEAN_MOTION_DDOT":0},{"OBJECT_NAME":"STARLINK-35601","OBJECT_ID":"2025-240D","EPOCH":"2025-12-15T22:00:01.999584","MEAN_MOTION":15.30207782,"ECCENTRICITY":0.00012936,"INCLINATION":53.158,"RA_OF_ASC_NODE":91.8642,"ARG_OF_PERICENTER":76.2274,"MEAN_ANOMALY":272.8923,"EPHEMERIS_TYPE":0,"CLASSIFICATION_TYPE":"U","NORAD_CAT_ID":66149,"ELEMENT_SET_NO":999,"REV_AT_EPOCH":588,"BSTAR":-0.00072916751,"MEAN_MOTION_DOT":-0.00021897,"MEAN_MOTION_DDOT":0},{"OBJECT_NAME":"STARLINK-35605","OBJECT_ID":"2025-240E","EPOCH":"2025-12-15T11:12:08.990208","MEAN_MOTION":15.30191566,"ECCENTRICITY":8.648e-5,"INCLINATION":53.1602,"RA_OF_ASC_NODE":94.0101,"ARG_OF_PERICENTER":91.7059,"MEAN_ANOMALY":268.4041,"EPHEMERIS_TYPE":0,"CLASSIFICATION_TYPE":"U","NORAD_CAT_ID":66150,"ELEMENT_SET_NO":999,"REV_AT_EPOCH":909,"BSTAR":0.00054254635,"MEAN_MOTION_DOT":0.00015739,"MEAN_MOTION_DDOT":0},{"OBJECT_NAME":"STARLINK-35540","OBJECT_ID":"2025-240F","EPOCH":"2025-12-15T16:41:13.910496","MEAN_MOTION":15.30206726,"ECCENTRICITY":8.953e-5,"INCLINATION":53.1623,"RA_OF_ASC_NODE":92.5922,"ARG_OF_PERICENTER":67.8434,"MEAN_ANOMALY":292.2662,"EPHEMERIS_TYPE":0,"CLASSIFICATION_TYPE":"U","NORAD_CAT_ID":66151,"ELEMENT_SET_NO":999,"REV_AT_EPOCH":913,"BSTAR":0.00086880094,"MEAN_MOTION_DOT":0.00025466,"MEAN_MOTION_DDOT":0},{"OBJECT_NAME":"STARLINK-35455","OBJECT_ID":"2025-240G","EPOCH":"2025-12-15T11:28:50.803392","MEAN_MOTION":15.30220726,"ECCENTRICITY":0.00018813,"INCLINATION":53.1623,"RA_OF_ASC_NODE":94.0831,"ARG_OF_PERICENTER":79.1587,"MEAN_ANOMALY":280.9626,"EPHEMERIS_TYPE":0,"CLASSIFICATION_TYPE":"U","NORAD_CAT_ID":66152,"ELEMENT_SET_NO":999,"REV_AT_EPOCH":909,"BSTAR":0.00076485469,"MEAN_MOTION_DOT":0.00022376,"MEAN_MOTION_DDOT":0}]
